[{"OBJECT_NAME":"STARLINK-4349","OBJECT_ID":"2022-077B","EPOCH":"2026-03-10T00:00:02.999808","MEAN_MOTION":15.82599286,"ECCENTRICITY":0.00011323,"INCLINATION":97.6018,"RA_OF_ASC_NODE":259.1547,"ARG_OF_PERICENTER":279.8477,"MEAN_ANOMALY":6.0284,"EPHEMERIS_TYPE":0,"CLASSIFICATION_TYPE":"U","NORAD_CAT_ID":53044,"ELEMENT_SET_NO":999,"REV_AT_EPOCH":598,"BSTAR":0.0011162879,"MEAN_MOTION_DOT":0.00238434,"MEAN_MOTION_DDOT":0},{"OBJECT_NAME":"COSMOS 1602","OBJECT_ID":"1984-105A","EPOCH":"2026-03-09T22:48:46.831392","MEAN_MOTION":15.83356674,"ECCENTRICITY":0.00023642,"INCLINATION":82.5141,"RA_OF_ASC_NODE":36.2127,"ARG_OF_PERICENTER":125.565,"MEAN_ANOMALY":234.584,"EPHEMERIS_TYPE":0,"CLASSIFICATION_TYPE":"U","NORAD_CAT_ID":15331,"ELEMENT_SET_NO":999,"REV_AT_EPOCH":26658,"BSTAR":0.00071609066,"MEAN_MOTION_DOT":0.00157023,"MEAN_MOTION_DDOT":0}]
